[{"OBJECT_NAME":"STARLINK-5276","OBJECT_ID":"2023-014J","EPOCH":"2026-03-09T09:30:37.138752","MEAN_MOTION":14.98330885,"ECCENTRICITY":0.00032459,"INCLINATION":69.9995,"RA_OF_ASC_NODE":65.1102,"ARG_OF_PERICENTER":267.8611,"MEAN_ANOMALY":92.2177,"EPHEMERIS_TYPE":0,"CLASSIFICATION_TYPE":"U","NORAD_CAT_ID":55399,"ELEMENT_SET_NO":999,"REV_AT_EPOCH":17201,"BSTAR":3.6248483e-5,"MEAN_MOTION_DOT":3.4e-6,"MEAN_MOTION_DDOT":0},{"OBJECT_NAME":"DELTA 1 DEB","OBJECT_ID":"1975-004G","EPOCH":"2026-03-09T15:36:08.786016","MEAN_MOTION":14.94952077,"ECCENTRICITY":0.0108933,"INCLINATION":98.7496,"RA_OF_ASC_NODE":312.2418,"ARG_OF_PERICENTER":37.6041,"MEAN_ANOMALY":323.2729,"EPHEMERIS_TYPE":0,"CLASSIFICATION_TYPE":"U","NORAD_CAT_ID":8679,"ELEMENT_SET_NO":999,"REV_AT_EPOCH":62753,"BSTAR":0.0013803,"MEAN_MOTION_DOT":0.00016927,"MEAN_MOTION_DDOT":0}]
